{
"type": "FeatureCollection",
"name": "addresses",
"crs": { "type": "name", "properties": { "name": "urn:ogc:def:crs:OGC:1.3:CRS84" } },
"features": [
{ "type": "Feature", "properties": { "osm_id": 1956594954, "amenity": "school", "operator": "government of kerala", "addr:housenumber": "15006", "religion": "all", "name": "Government Vocational Higher Secondary School, Mananthavady", "office": null, "addr:city": "Mananthavady", "operator:type": "government", "addr:postcode": "670645", "grades": "1-10", "wikidata": "Q64522739", "internet_access": "wlan", "addr:street": "Mananthavady- Kalpetta road", "website": null, "opening_hours": null, "government": null }, "geometry": { "type": "Point", "coordinates": [ 76.0029303, 11.7898818 ] } },
{ "type": "Feature", "properties": { "osm_id": 8002785388, "amenity": null, "operator": null, "addr:housenumber": "2nd floor", "religion": null, "name": "Taluk Statistical Office, Mananthavady", "office": "government", "addr:city": "Mananthavady", "operator:type": null, "addr:postcode": null, "grades": null, "wikidata": null, "internet_access": null, "addr:street": "Mini Civil Station", "website": "https:\/\/www.ecostat.kerala.gov.in\/", "opening_hours": "Mo-Sa 08:00-18:00", "government": "administrative" }, "geometry": { "type": "Point", "coordinates": [ 76.0031789, 11.7959343 ] } }
]
}
